0 SL-16 R/B
1 22220U 92076B   13282.51981817 -.00000026  00000-0  10757-4 0  1454
2 22220 071.0038 013.6133 0012085 175.4606 267.4487 14.16273879 80094
0 SL-16 R/B
1 22220U 92076B   13283.86845198 -.00000073  00000-0 -12696-4 0  1462
2 22220 071.0037 010.7754 0011974 173.4108 303.5659 14.16274894 80283
0 SL-16 R/B
1 22220U 92076B   13286.54754366 -.00000160  00000-0 -56377-4 0  1489
2 22220 071.0033 005.1383 0011807 169.2019 283.2776 14.16275372 80662
0 SL-16 R/B
1 22220U 92076B   13287.82398977 -.00000200  00000-0 -76474-4 0  1499
2 22220 071.0029 002.4525 0011730 167.2255 311.3827 14.16275344 80849
0 SL-16 R/B
1 22220U 92076B   13289.14547470 -.00000231  00000-0 -92188-4 0  1506
2 22220 071.0026 359.6719 0011661 165.0140 209.2890 14.16275232 81033
0 SL-16 R/B
1 22220U 92076B   13290.64727478 -.00000237  00000-0 -95283-4 0  1517
2 22220 071.0022 356.5119 0011597 162.5122 306.5650 14.16274874 81248
0 SL-16 R/B
1 22220U 92076B   13292.19203784 -.00000218  00000-0 -85878-4 0  1527
2 22220 071.0018 353.2613 0011541 159.7994 263.0353 14.16274331 81469
0 SL-16 R/B
1 22220U 92076B   13293.46679880 -.00000164  00000-0 -58369-4 0  1538
2 22220 071.0016 350.5787 0011519 157.4965 282.8779 14.16273512 81648
0 SL-16 R/B
1 22220U 92076B   13294.52980191 -.00000112  00000-0 -32287-4 0  1541
2 22220 071.0015 348.3418 0011492 155.6057 302.9626 14.16272736 81793
0 SL-16 R/B
1 22220U 92076B   13295.66864593 -.00000041  00000-0  33949-5 0  1552
2 22220 071.0013 345.9452 0011455 153.5916 349.7342 14.16271813 81959
